HTV-X1                  
1 66174U 25241A   26073.34423278  .00013268  00000+0  57087-3 0  9998
2 66174  51.6358  50.7100 0005741 187.4047 172.6847 15.22910160 21662
SZ-21 MODULE            
1 66515U 25246C   26076.58482274  .00029162  00000+0  24561-3 0  9993
2 66515  41.4741 154.7368 0000592 302.6268  57.4517 15.69175030 19313
SHENZHOU-22             
1 66645U 25272A   26076.58544776  .00020571  00000+0  24025-3 0  9992
2 66645  41.4671 160.1042 0006128 321.3981  38.6419 15.61097073267522
SOYUZ-MS 28             
1 66664U 25275A   26076.38694946  .00012661  00000+0  24296-3 0  9990
2 66664  51.6338  34.3055 0006232 201.4845 158.5882 15.48344038554521
DUPLEX                  
1 66906U 98067XS  26076.86846201  .00023871  00000+0  33315-3 0  9991
2 66906  51.6300  28.5236 0002923 147.5599 212.5573 15.56749570 16401
ISS OBJECT XT           
1 66907U 98067XT  26076.85404335  .00141215  00000+0  10418-2 0  9990
2 66907  51.6254  23.9047 0004960 133.7464 226.3945 15.72037118 16468
ISS OBJECT XU           
1 66908U 98067XU  26076.85153676  .00143415  00000+0  10510-2 0  9997
2 66908  51.6253  23.8844 0005185 134.5412 225.6010 15.72184619 16468
SILVERSAT               
1 66909U 98067XV  26076.83582369  .00194062  00000+0  12052-2 0  9998
2 66909  51.6245  23.0257 0005592 135.6947 224.4501 15.75860504 16477
ISS OBJECT XW           
1 66910U 98067XW  26076.85303997  .00123250  00000+0  94833-3 0  9999
2 66910  51.6246  23.8907 0005548 135.6820 224.4623 15.71100096 16464
ISS OBJECT XX           
1 66911U 98067XX  26076.87710630  .00249839  00000+0  12731-2 0  9996
2 66911  51.6216  21.7750 0007190 140.6515 219.5010 15.80108940 16480
ISS OBJECT XY           
1 66912U 98067XY  26076.88531610  .00077134  00000+0  75848-3 0  9993
2 66912  51.6276  25.6291 0003618 137.8396 222.2878 15.65311946 16439
KNACKSAT-2              
1 67683U 98067XZ  26076.83982383  .00029346  00000+0  47514-3 0  9992
2 67683  51.6316  31.3309 0009650 214.5543 145.4820 15.52508996  6052
